{
  "norad_id": 47797,
  "name": "STARLINK-2377",
  "history": [
    {
      "epoch": "2026-03-28T11:44:12.658560",
      "apogee_km": 478.5166378709355,
      "perigee_km": 476.88796468652345,
      "latitude_deg": 25.991510229906606,
      "longitude_deg": 86.6473983998876,
      "semi_major_axis_km": 6855.839301278729,
      "eccentricity": 0.00011878,
      "inclination_deg": 53.1575,
      "raan_deg": 167.8307,
      "arg_perigee_deg": 88.5563,
      "mean_anomaly_deg": 271.5573,
      "mean_motion_rev_day": 15.29367363
    }
  ]
}